[
  {
    "ORDINAL": "1",
    "COMMENT": "GENERATED VIA SPACETRACK.ORG API",
    "ORIGINATOR": "18 SPCS",
    "NORAD_CAT_ID": "834",
    "OBJECT_NAME": "SL-3 R/B",
    "OBJECT_TYPE": "ROCKET BODY",
    "CLASSIFICATION_TYPE": "U",
    "INTLDES": "64039B",
    "EPOCH": "1964-07-31 18:33:00",
    "EPOCH_MICROSECONDS": "318239",
    "MEAN_MOTION": "16.36118811",
    "ECCENTRICITY": "0.0026101",
    "INCLINATION": "51.2743",
    "RA_OF_ASC_NODE": "24.3005",
    "ARG_OF_PERICENTER": "220.7608",
    "MEAN_ANOMALY": "139.0409",
    "EPHEMERIS_TYPE": "0",
    "ELEMENT_SET_NO": "999",
    "REV_AT_EPOCH": "264",
    "BSTAR": "0",
    "MEAN_MOTION_DOT": "0.03274629",
    "MEAN_MOTION_DDOT": "0",
    "FILE": "33910",
    "TLE_LINE0": "0 SL-3 R/B",
    "TLE_LINE1": "1 00834U 64039  B 64213.77292035  .03274629 +00000-0 +00000-0 0  9991",
    "TLE_LINE2": "2 00834 051.2743 024.3005 0026101 220.7608 139.0409 16.36118811002642",
    "OBJECT_ID": "1964-039B",
    "OBJECT_NUMBER": "834",
    "SEMIMAJOR_AXIS": "6554.289",
    "PERIOD": "88.013",
    "APOGEE": "193.261",
    "PERIGEE": "159.046",
    "DECAYED": "1"
  },
  {
    "ORDINAL": "1",
    "COMMENT": "GENERATED VIA SPACETRACK.ORG API",
    "ORIGINATOR": "18 SPCS",
    "NORAD_CAT_ID": "835",
    "OBJECT_NAME": "SL-3 DEB",
    "OBJECT_TYPE": "DEBRIS",
    "CLASSIFICATION_TYPE": "U",
    "INTLDES": "64039C",
    "EPOCH": "1964-07-29 06:52:51",
    "EPOCH_MICROSECONDS": "144384",
    "MEAN_MOTION": "16.30756013",
    "ECCENTRICITY": "0.00194",
    "INCLINATION": "51.2498",
    "RA_OF_ASC_NODE": "37.7434",
    "ARG_OF_PERICENTER": "114.8229",
    "MEAN_ANOMALY": "245.3772",
    "EPHEMERIS_TYPE": "0",
    "ELEMENT_SET_NO": "999",
    "REV_AT_EPOCH": "224",
    "BSTAR": "0",
    "MEAN_MOTION_DOT": "0.01297778",
    "MEAN_MOTION_DDOT": "0",
    "FILE": "33910",
    "TLE_LINE0": "0 SL-3 DEB",
    "TLE_LINE1": "1 00835U 64039  C 64211.28670306  .01297778 +00000-0 +00000-0 0  9995",
    "TLE_LINE2": "2 00835 051.2498 037.7434 0019400 114.8229 245.3772 16.30756013002246",
    "OBJECT_ID": "1964-039C",
    "OBJECT_NUMBER": "835",
    "SEMIMAJOR_AXIS": "6568.650",
    "PERIOD": "88.303",
    "APOGEE": "203.258",
    "PERIGEE": "177.772",
    "DECAYED": "1"
  },
  {
    "ORDINAL": "1",
    "COMMENT": "GENERATED VIA SPACETRACK.ORG API",
    "ORIGINATOR": "18 SPCS",
    "NORAD_CAT_ID": "836",
    "OBJECT_NAME": "OPS 3662 (VELA 3)",
    "OBJECT_TYPE": "PAYLOAD",
    "CLASSIFICATION_TYPE": "U",
    "INTLDES": "64040A",
    "EPOCH": "2023-02-04 07:24:34",
    "EPOCH_MICROSECONDS": "767072",
    "MEAN_MOTION": "0.23909211",
    "ECCENTRICITY": "0.640504",
    "INCLINATION": "41.9587",
    "RA_OF_ASC_NODE": "146.4178",
    "ARG_OF_PERICENTER": "316.0942",
    "MEAN_ANOMALY": "0.0918",
    "EPHEMERIS_TYPE": "0",
    "ELEMENT_SET_NO": "999",
    "REV_AT_EPOCH": "805",
    "BSTAR": "0",
    "MEAN_MOTION_DOT": "0.00000101",
    "MEAN_MOTION_DDOT": "0",
    "FILE": "3766747",
    "TLE_LINE0": "0 OPS 3662 (VELA 3)",
    "TLE_LINE1": "1 00836U 64040A   23035.30873573  .00000101  00000-0  00000-0 0  9992",
    "TLE_LINE2": "2 00836  41.9587 146.4178 6405040 316.0942   0.0918  0.23909211  8056",
    "OBJECT_ID": "1964-040A",
    "OBJECT_NUMBER": "836",
    "SEMIMAJOR_AXIS": "109654.135",
    "PERIOD": "6022.783",
    "APOGEE": "173509.911",
    "PERIGEE": "33042.088",
    "DECAYED": "0"
  },
  {
    "ORDINAL": "1",
    "COMMENT": "GENERATED VIA SPACETRACK.ORG API",
    "ORIGINATOR": "18 SPCS",
    "NORAD_CAT_ID": "837",
    "OBJECT_NAME": "OPS 3674 (VELA 4)",
    "OBJECT_TYPE": "PAYLOAD",
    "CLASSIFICATION_TYPE": "U",
    "INTLDES": "64040B",
    "EPOCH": "2023-01-31 23:01:16",
    "EPOCH_MICROSECONDS": "443840",
    "MEAN_MOTION": "0.23990288",
    "ECCENTRICITY": "0.3048957",
    "INCLINATION": "46.6709",
    "RA_OF_ASC_NODE": "145.4574",
    "ARG_OF_PERICENTER": "291.0875",
    "MEAN_ANOMALY": "0.1072",
    "EPHEMERIS_TYPE": "0",
    "ELEMENT_SET_NO": "999",
    "REV_AT_EPOCH": "5177",
    "BSTAR": "0",
    "MEAN_MOTION_DOT": "-0.00000019",
    "MEAN_MOTION_DDOT": "0",
    "FILE": "3765015",
    "TLE_LINE0": "0 OPS 3674 (VELA 4)",
    "TLE_LINE1": "1 00837U 64040B   23031.95921810 -.00000019  00000-0  00000-0 0  9997",
    "TLE_LINE2": "2 00837  46.6709 145.4574 3048957 291.0875   0.1072  0.23990288 51771",
    "OBJECT_ID": "1964-040B",
    "OBJECT_NUMBER": "837",
    "SEMIMAJOR_AXIS": "109406.939",
    "PERIOD": "6002.429",
    "APOGEE": "136386.509",
    "PERIGEE": "69671.099",
    "DECAYED": "0"
  },
  {
    "ORDINAL": "1",
    "COMMENT": "GENERATED VIA SPACETRACK.ORG API",
    "ORIGINATOR": "18 SPCS",
    "NORAD_CAT_ID": "838",
    "OBJECT_NAME": "ERS 13",
    "OBJECT_TYPE": "PAYLOAD",
    "CLASSIFICATION_TYPE": "U",
    "INTLDES": "64040C",
    "EPOCH": "1965-08-29 10:14:19",
    "EPOCH_MICROSECONDS": "636224",
    "MEAN_MOTION": "0.61303366",
    "ECCENTRICITY": "0.8855858",
    "INCLINATION": "38.2958",
    "RA_OF_ASC_NODE": "180.0547",
    "ARG_OF_PERICENTER": "187.6676",
    "MEAN_ANOMALY": "124.0118",
    "EPHEMERIS_TYPE": "0",
    "ELEMENT_SET_NO": "999",
    "REV_AT_EPOCH": "250",
    "BSTAR": "0",
    "MEAN_MOTION_DOT": "0.00000049",
    "MEAN_MOTION_DDOT": "0",
    "FILE": "33911",
    "TLE_LINE0": "0 ERS 13",
    "TLE_LINE1": "1 00838U 64040  C 65241.42661616  .00000049 +00000-0 +00000-0 0  9996",
    "TLE_LINE2": "2 00838 038.2958 180.0547 8855858 187.6676 124.0118 00.61303366002501",
    "OBJECT_ID": "1964-040C",
    "OBJECT_NUMBER": "838",
    "SEMIMAJOR_AXIS": "58534.589",
    "PERIOD": "2348.974",
    "APOGEE": "103993.854",
    "PERIGEE": "319.053",
    "DECAYED": "1"
  },
  {
    "ORDINAL": "1",
    "COMMENT": "GENERATED VIA SPACETRACK.ORG API",
    "ORIGINATOR": "18 SPCS",
    "NORAD_CAT_ID": "839",
    "OBJECT_NAME": "SL-3 DEB",
    "OBJECT_TYPE": "DEBRIS",
    "CLASSIFICATION_TYPE": "U",
    "INTLDES": "64039D",
    "EPOCH": "1964-07-23 17:00:53",
    "EPOCH_MICROSECONDS": "692127",
    "MEAN_MOTION": "16.01877",
    "ECCENTRICITY": "0.0141754",
    "INCLINATION": "50.9526",
    "RA_OF_ASC_NODE": "69.0526",
    "ARG_OF_PERICENTER": "313.0016",
    "MEAN_ANOMALY": "45.8621",
    "EPHEMERIS_TYPE": "0",
    "ELEMENT_SET_NO": "999",
    "REV_AT_EPOCH": "133",
    "BSTAR": "0",
    "MEAN_MOTION_DOT": "0.13406145",
    "MEAN_MOTION_DDOT": "0",
    "FILE": "33910",
    "TLE_LINE0": "0 SL-3 DEB",
    "TLE_LINE1": "1 00839U 64039  D 64205.70895477  .13406145 +00000-0 +00000-0 0  9990",
    "TLE_LINE2": "2 00839 050.9526 069.0526 0141754 313.0016 045.8621 16.01877000001336",
    "OBJECT_ID": "1964-039D",
    "OBJECT_NUMBER": "839",
    "SEMIMAJOR_AXIS": "6647.362",
    "PERIOD": "89.895",
    "APOGEE": "363.456",
    "PERIGEE": "174.998",
    "DECAYED": "1"
  },
  {
    "ORDINAL": "1",
    "COMMENT": "GENERATED VIA SPACETRACK.ORG API",
    "ORIGINATOR": "18 SPCS",
    "NORAD_CAT_ID": "840",
    "OBJECT_NAME": "THOR ABLESTAR DEB",
    "OBJECT_TYPE": "DEBRIS",
    "CLASSIFICATION_TYPE": "U",
    "INTLDES": "60007D",
    "EPOCH": "2003-08-18 08:42:40",
    "EPOCH_MICROSECONDS": "470624",
    "MEAN_MOTION": "16.25532984",
    "ECCENTRICITY": "0.0008296",
    "INCLINATION": "66.6032",
    "RA_OF_ASC_NODE": "231.1355",
    "ARG_OF_PERICENTER": "284.9829",
    "MEAN_ANOMALY": "76.2529",
    "EPHEMERIS_TYPE": "0",
    "ELEMENT_SET_NO": "999",
    "REV_AT_EPOCH": "27320",
    "BSTAR": "0.0027797",
    "MEAN_MOTION_DOT": "0.08452989",
    "MEAN_MOTION_DDOT": "0.0000063471",
    "FILE": "7477",
    "TLE_LINE0": "0 THOR ABLESTAR DEB",
    "TLE_LINE1": "1   840U 60007D   03230.36296841 +.08452989 +63471-5 +27797-2 0  9997",
    "TLE_LINE2": "2   840 066.6032 231.1355 0008296 284.9829 076.2529 16.25532984273204",
    "OBJECT_ID": "1960-007D",
    "OBJECT_NUMBER": "840",
    "SEMIMAJOR_AXIS": "6582.713",
    "PERIOD": "88.586",
    "APOGEE": "210.039",
    "PERIGEE": "199.117",
    "DECAYED": "1"
  },
  {
    "ORDINAL": "1",
    "COMMENT": "GENERATED VIA SPACETRACK.ORG API",
    "ORIGINATOR": "18 SPCS",
    "NORAD_CAT_ID": "841",
    "OBJECT_NAME": "THOR ABLESTAR DEB",
    "OBJECT_TYPE": "DEBRIS",
    "CLASSIFICATION_TYPE": "U",
    "INTLDES": "60007E",
    "EPOCH": "2002-11-28 16:59:25",
    "EPOCH_MICROSECONDS": "825056",
    "MEAN_MOTION": "16.32026864",
    "ECCENTRICITY": "0.0012307",
    "INCLINATION": "66.6181",
    "RA_OF_ASC_NODE": "227.1335",
    "ARG_OF_PERICENTER": "205.0707",
    "MEAN_ANOMALY": "154.9896",
    "EPHEMERIS_TYPE": "0",
    "ELEMENT_SET_NO": "999",
    "REV_AT_EPOCH": "23512",
    "BSTAR": "0.0018542",
    "MEAN_MOTION_DOT": "0.10389536",
    "MEAN_MOTION_DDOT": "0.0000063768",
    "FILE": "7021",
    "TLE_LINE0": "0 THOR ABLESTAR DEB",
    "TLE_LINE1": "1   841U 60007E   02332.70793779 +.10389536 +63768-5 +18542-2 0  9997",
    "TLE_LINE2": "2   841 066.6181 227.1335 0012307 205.0707 154.9896 16.32026864235123",
    "OBJECT_ID": "1960-007E",
    "OBJECT_NUMBER": "841",
    "SEMIMAJOR_AXIS": "6565.240",
    "PERIOD": "88.234",
    "APOGEE": "195.184",
    "PERIGEE": "179.025",
    "DECAYED": "1"
  }
]
